IRIDIUM 171             
1 43929U 19002H   23316.49554588  .00000109  00000+0  31815-4 0  9993
2 43929  86.4021  29.8370 0002254  94.8856 265.2597 14.34210512253124
IRIDIUM 170             
1 43930U 19002J   23316.49139280  .00001558  00000+0  24314-3 0  9997
2 43930  86.6138  29.6917 0002294  97.2766 262.8712 14.72250188259823
IRIDIUM 167             
1 43931U 19002K   23316.48920273  .00000411  00000+0  13965-3 0  9994
2 43931  86.4010  29.6526 0002233  96.4431 263.7019 14.34216710253128
IRIDIUM 181             
1 56726U 23068S   23316.79965059  .00000663  00000+0  19000-3 0  9997
2 56726  86.8627  72.7066 0003198 104.6494 255.5062 14.43587024 25776
IRIDIUM 177             
1 56727U 23068T   23316.81832849  .00002425  00000+0  31582-3 0  9998
2 56727  86.1997  58.5451 0002177  92.3798 267.7672 14.80204867 26221
IRIDIUM 174             
1 56728U 23068U   23316.54249632  .00002787  00000+0  36342-3 0  9991
2 56728  86.2004  58.7620 0001964  95.2684 264.8761 14.80208642 26188
IRIDIUM 178             
1 56729U 23068V   23316.33434864  .00002279  00000+0  29663-3 0  9996
2 56729  86.5793  65.9996 0002188  89.6805 270.4667 14.80208759 26158
IRIDIUM 179             
1 56730U 23068W   23316.59931679  .00002604  00000+0  33941-3 0  9998
2 56730  86.6801  67.2804 0001883  95.0521 265.0916 14.80213821 26198
